[{"OBJECT_NAME":"IRIDIUM 164","OBJECT_ID":"2018-061J","EPOCH":"2026-03-09T19:37:38.506656","MEAN_MOTION":14.34217471,"ECCENTRICITY":0.00023952,"INCLINATION":86.3912,"RA_OF_ASC_NODE":98.3356,"ARG_OF_PERICENTER":97.8473,"MEAN_ANOMALY":262.2995,"EPHEMERIS_TYPE":0,"CLASSIFICATION_TYPE":"U","NORAD_CAT_ID":43577,"ELEMENT_SET_NO":999,"REV_AT_EPOCH":39917,"BSTAR":-1.475216e-6,"MEAN_MOTION_DOT":1.6e-7,"MEAN_MOTION_DDOT":0},{"OBJECT_NAME":"THORAD AGENA D DEB","OBJECT_ID":"1969-082CF","EPOCH":"2026-03-09T21:12:32.900832","MEAN_MOTION":14.2468292,"ECCENTRICITY":0.00500411,"INCLINATION":70.1044,"RA_OF_ASC_NODE":261.8619,"ARG_OF_PERICENTER":269.3115,"MEAN_ANOMALY":90.2272,"EPHEMERIS_TYPE":0,"CLASSIFICATION_TYPE":"U","NORAD_CAT_ID":4216,"ELEMENT_SET_NO":999,"REV_AT_EPOCH":14721,"BSTAR":0.00020014158,"MEAN_MOTION_DOT":4.16e-6,"MEAN_MOTION_DDOT":0}]
